{
    "links": {
        "self": "http://www.neowsapp.com/rest/v1/neo/3388398?api_key=iIulBulltgU6a56xZRHN4H3l9WmuAYTsLGpBGhQ2"
    },
    "id": "3388398",
    "neo_reference_id": "3388398",
    "name": "(2007 TV68)",
    "designation": "2007 TV68",
    "nasa_jpl_url": "http://ssd.jpl.nasa.gov/sbdb.cgi?sstr=3388398",
    "absolute_magnitude_h": 23.0,
    "estimated_diameter": {
        "kilometers": {
            "estimated_diameter_min": 0.0667659413,
            "estimated_diameter_max": 0.1492931834
        },
        "meters": {
            "estimated_diameter_min": 66.7659413495,
            "estimated_diameter_max": 149.2931834393
        },
        "miles": {
            "estimated_diameter_min": 0.0414864197,
            "estimated_diameter_max": 0.0927664547
        },
        "feet": {
            "estimated_diameter_min": 219.0483710172,
            "estimated_diameter_max": 489.807047955
        }
    },
    "is_potentially_hazardous_asteroid": false,
    "close_approach_data": [
        {
            "close_approach_date": "2007-10-13",
            "close_approach_date_full": "2007-Oct-13 17:49",
            "epoch_date_close_approach": 1192297740000,
            "relative_velocity": {
                "kilometers_per_second": "5.5079047139",
                "kilometers_per_hour": "19828.4569698608",
                "miles_per_hour": "12320.6320544115"
            },
            "miss_distance": {
                "astronomical": "0.1303169412",
                "lunar": "50.6932901268",
                "kilometers": "19495136.828435244",
                "miles": "12113716.3047006072"
            },
            "orbiting_body": "Earth"
        },
        {
            "close_approach_date": "2008-01-27",
            "close_approach_date_full": "2008-Jan-27 04:29",
            "epoch_date_close_approach": 1201408140000,
            "relative_velocity": {
                "kilometers_per_second": "12.0610323212",
                "kilometers_per_hour": "43419.7163564104",
                "miles_per_hour": "26979.3231993484"
            },
            "miss_distance": {
                "astronomical": "0.0716011455",
                "lunar": "27.8528455995",
                "kilometers": "10711378.856360085",
                "miles": "6655742.190475773"
            },
            "orbiting_body": "Mars"
        },
        {
            "close_approach_date": "2138-09-24",
            "close_approach_date_full": "2138-Sep-24 14:12",
            "epoch_date_close_approach": 5324623920000,
            "relative_velocity": {
                "kilometers_per_second": "12.3994845488",
                "kilometers_per_hour": "44638.1443756325",
                "miles_per_hour": "27736.4069871812"
            },
            "miss_distance": {
                "astronomical": "0.3515759713",
                "lunar": "136.7630528357",
                "kilometers": "52595016.449661131",
                "miles": "32681027.7824243678"
            },
            "orbiting_body": "Earth"
        },
        {
            "close_approach_date": "2142-10-16",
            "close_approach_date_full": "2142-Oct-16 02:26",
            "epoch_date_close_approach": 5452712760000,
            "relative_velocity": {
                "kilometers_per_second": "11.9324048655",
                "kilometers_per_hour": "42956.6575158342",
                "miles_per_hour": "26691.5964436582"
            },
            "miss_distance": {
                "astronomical": "0.0607323974",
                "lunar": "23.6249025886",
                "kilometers": "9085437.291033538",
                "miles": "5645428.9506293044"
            },
            "orbiting_body": "Mars"
        }
    ],
    "orbital_data": {
        "orbit_id": "17",
        "orbit_determination_date": "2017-04-06 09:05:40",
        "first_observation_date": "2007-10-13",
        "last_observation_date": "2007-11-20",
        "data_arc_in_days": 38,
        "observations_used": 76,
        "orbit_uncertainty": "7",
        "minimum_orbit_intersection": ".144983",
        "jupiter_tisserand_invariant": "3.159",
        "epoch_osculation": "2459000.5",
        "eccentricity": ".5641316431167001",
        "semi_major_axis": "2.616236079411242",
        "inclination": "1.76586503715994",
        "ascending_node_longitude": "47.0109256248451",
        "orbital_period": "1545.659482790888",
        "perihelion_distance": "1.140334521151785",
        "perihelion_argument": "337.9135631028909",
        "aphelion_distance": "4.092137637670699",
        "perihelion_time": "2459010.376375325378",
        "mean_anomaly": "357.6996905484538",
        "mean_motion": ".2329102910493413",
        "equinox": "J2000",
        "orbit_class": {
            "orbit_class_type": "AMO",
            "orbit_class_description": "Near-Earth asteroid orbits similar to that of 1221 Amor",
            "orbit_class_range": "1.017 AU < q (perihelion) < 1.3 AU"
        }
    },
    "is_sentry_object": false
}